{
    "links": {
        "self": "http://www.neowsapp.com/rest/v1/neo/3756787?api_key=iIulBulltgU6a56xZRHN4H3l9WmuAYTsLGpBGhQ2"
    },
    "id": "3756787",
    "neo_reference_id": "3756787",
    "name": "(2016 PQ)",
    "designation": "2016 PQ",
    "nasa_jpl_url": "http://ssd.jpl.nasa.gov/sbdb.cgi?sstr=3756787",
    "absolute_magnitude_h": 25.9,
    "estimated_diameter": {
        "kilometers": {
            "estimated_diameter_min": 0.0175612318,
            "estimated_diameter_max": 0.0392681082
        },
        "meters": {
            "estimated_diameter_min": 17.561231848,
            "estimated_diameter_max": 39.2681081809
        },
        "miles": {
            "estimated_diameter_min": 0.0109120402,
            "estimated_diameter_max": 0.0244000636
        },
        "feet": {
            "estimated_diameter_min": 57.6155918963,
            "estimated_diameter_max": 128.8323800441
        }
    },
    "is_potentially_hazardous_asteroid": false,
    "close_approach_data": [
        {
            "close_approach_date": "2016-08-07",
            "close_approach_date_full": "2016-Aug-07 06:21",
            "epoch_date_close_approach": 1470550860000,
            "relative_velocity": {
                "kilometers_per_second": "12.7366225266",
                "kilometers_per_hour": "45851.8410957362",
                "miles_per_hour": "28490.5509297368"
            },
            "miss_distance": {
                "astronomical": "0.0251994107",
                "lunar": "9.8025707623",
                "kilometers": "3769778.165975209",
                "miles": "2342431.5323435242"
            },
            "orbiting_body": "Earth"
        }
    ],
    "orbital_data": {
        "orbit_id": "9",
        "orbit_determination_date": "2019-07-17 06:11:19",
        "first_observation_date": "2016-08-02",
        "last_observation_date": "2016-08-07",
        "data_arc_in_days": 5,
        "observations_used": 23,
        "orbit_uncertainty": "7",
        "minimum_orbit_intersection": ".000550905",
        "jupiter_tisserand_invariant": "3.745",
        "epoch_osculation": "2459000.5",
        "eccentricity": ".543045955386304",
        "semi_major_axis": "1.906442098596087",
        "inclination": "2.618835079058422",
        "ascending_node_longitude": "317.5503913786498",
        "orbital_period": "961.4658346730349",
        "perihelion_distance": ".8711564277753046",
        "perihelion_argument": "53.70437265820524",
        "aphelion_distance": "2.941727769416869",
        "perihelion_time": "2458610.314982298072",
        "mean_anomaly": "146.0963055649943",
        "mean_motion": ".3744282812944934",
        "equinox": "J2000",
        "orbit_class": {
            "orbit_class_type": "APO",
            "orbit_class_description": "Near-Earth asteroid orbits which cross the Earth’s orbit similar to that of 1862 Apollo",
            "orbit_class_range": "a (semi-major axis) > 1.0 AU; q (perihelion) < 1.017 AU"
        }
    },
    "is_sentry_object": false
}